CCSDS_OMM_VERS = 2.0
CREATION_DATE  = 
ORIGINATOR     = 

OBJECT_NAME    = RSP-03
OBJECT_ID      = 1998-067XL
CENTER_NAME    = EARTH
REF_FRAME      = TEME
TIME_SYSTEM    = UTC
MEAN_ELEMENT_THEORY = SGP/SGP4

EPOCH          = 2026-02-08T15:53:47.964480
MEAN_MOTION    = 16.02581073
ECCENTRICITY   = .00072769
INCLINATION    = 51.6148
RA_OF_ASC_NODE = 196.1853
ARG_OF_PERICENTER = 299.9440
MEAN_ANOMALY   = 60.0848

EPHEMERIS_TYPE = 0
CLASSIFICATION_TYPE = U
NORAD_CAT_ID   = 65732
ELEMENT_SET_NO = 999
REV_AT_EPOCH   = 2232
BSTAR          = .13863143E-2
MEAN_MOTION_DOT = .844645E-2
MEAN_MOTION_DDOT = .35986384E-3

CCSDS_OMM_VERS = 2.0
CREATION_DATE  = 
ORIGINATOR     = 

OBJECT_NAME    = YOTSUBA-KULOVER
OBJECT_ID      = 1998-067XN
CENTER_NAME    = EARTH
REF_FRAME      = TEME
TIME_SYSTEM    = UTC
MEAN_ELEMENT_THEORY = SGP/SGP4

EPOCH          = 2026-02-08T17:06:38.655360
MEAN_MOTION    = 15.70895294
ECCENTRICITY   = .0004047
INCLINATION    = 51.6242
RA_OF_ASC_NODE = 206.4026
ARG_OF_PERICENTER = 255.5086
MEAN_ANOMALY   = 104.5463

EPHEMERIS_TYPE = 0
CLASSIFICATION_TYPE = U
NORAD_CAT_ID   = 65941
ELEMENT_SET_NO = 999
REV_AT_EPOCH   = 1893
BSTAR          = .91542795E-3
MEAN_MOTION_DOT = .117812E-2
MEAN_MOTION_DDOT = 0

CCSDS_OMM_VERS = 2.0
CREATION_DATE  = 
ORIGINATOR     = 

OBJECT_NAME    = BOTAN
OBJECT_ID      = 1998-067XP
CENTER_NAME    = EARTH
REF_FRAME      = TEME
TIME_SYSTEM    = UTC
MEAN_ELEMENT_THEORY = SGP/SGP4

EPOCH          = 2026-02-08T11:04:57.999360
MEAN_MOTION    = 15.84336701
ECCENTRICITY   = .00062229
INCLINATION    = 51.6179
RA_OF_ASC_NODE = 203.9271
ARG_OF_PERICENTER = 277.7015
MEAN_ANOMALY   = 82.3282

EPHEMERIS_TYPE = 0
CLASSIFICATION_TYPE = U
NORAD_CAT_ID   = 65942
ELEMENT_SET_NO = 999
REV_AT_EPOCH   = 1894
BSTAR          = .14174891E-2
MEAN_MOTION_DOT = .342562E-2
MEAN_MOTION_DDOT = 0

CCSDS_OMM_VERS = 2.0
CREATION_DATE  = 
ORIGINATOR     = 

OBJECT_NAME    = E-KAGAKU-1
OBJECT_ID      = 1998-067XQ
CENTER_NAME    = EARTH
REF_FRAME      = TEME
TIME_SYSTEM    = UTC
MEAN_ELEMENT_THEORY = SGP/SGP4

EPOCH          = 2026-02-08T17:07:47.798688
MEAN_MOTION    = 15.70789022
ECCENTRICITY   = .00034781
INCLINATION    = 51.6277
RA_OF_ASC_NODE = 206.4201
ARG_OF_PERICENTER = 270.0680
MEAN_ANOMALY   = 89.9919

EPHEMERIS_TYPE = 0
CLASSIFICATION_TYPE = U
NORAD_CAT_ID   = 65943
ELEMENT_SET_NO = 999
REV_AT_EPOCH   = 1893
BSTAR          = .88438305E-3
MEAN_MOTION_DOT = .113215E-2
MEAN_MOTION_DDOT = 0

CCSDS_OMM_VERS = 2.0
CREATION_DATE  = 
ORIGINATOR     = 

OBJECT_NAME    = HTV-X1
OBJECT_ID      = 2025-241A
CENTER_NAME    = EARTH
REF_FRAME      = TEME
TIME_SYSTEM    = UTC
MEAN_ELEMENT_THEORY = SGP/SGP4

EPOCH          = 2026-02-09T04:20:20.856480
MEAN_MOTION    = 15.48499027
ECCENTRICITY   = .00110961
INCLINATION    = 51.6312
RA_OF_ASC_NODE = 213.2864
ARG_OF_PERICENTER = 78.9890
MEAN_ANOMALY   = 281.2346

EPHEMERIS_TYPE = 0
CLASSIFICATION_TYPE = U
NORAD_CAT_ID   = 66174
ELEMENT_SET_NO = 999
REV_AT_EPOCH   = 51
BSTAR          = .20454511E-3
MEAN_MOTION_DOT = .10658E-3
MEAN_MOTION_DDOT = 0

CCSDS_OMM_VERS = 2.0
CREATION_DATE  = 
ORIGINATOR     = 

OBJECT_NAME    = SHENZHOU-22
OBJECT_ID      = 2025-272A
CENTER_NAME    = EARTH
REF_FRAME      = TEME
TIME_SYSTEM    = UTC
MEAN_ELEMENT_THEORY = SGP/SGP4

EPOCH          = 2026-02-09T06:59:45.167136
MEAN_MOTION    = 15.59379177
ECCENTRICITY   = .00047468
INCLINATION    = 41.4685
RA_OF_ASC_NODE = 20.7882
ARG_OF_PERICENTER = 37.5365
MEAN_ANOMALY   = 322.5804

EPHEMERIS_TYPE = 0
CLASSIFICATION_TYPE = U
NORAD_CAT_ID   = 66645
ELEMENT_SET_NO = 999
REV_AT_EPOCH   = 26764
BSTAR          = .22143477E-3
MEAN_MOTION_DOT = .17698E-3
MEAN_MOTION_DDOT = 0

CCSDS_OMM_VERS = 2.0
CREATION_DATE  = 
ORIGINATOR     = 

OBJECT_NAME    = SOYUZ-MS 28
OBJECT_ID      = 2025-275A
CENTER_NAME    = EARTH
REF_FRAME      = TEME
TIME_SYSTEM    = UTC
MEAN_ELEMENT_THEORY = SGP/SGP4

EPOCH          = 2026-02-09T04:20:20.856480
MEAN_MOTION    = 15.48499027
ECCENTRICITY   = .00110961
INCLINATION    = 51.6312
RA_OF_ASC_NODE = 213.2864
ARG_OF_PERICENTER = 78.9890
MEAN_ANOMALY   = 281.2346

EPHEMERIS_TYPE = 0
CLASSIFICATION_TYPE = U
NORAD_CAT_ID   = 66664
ELEMENT_SET_NO = 999
REV_AT_EPOCH   = 128
BSTAR          = .20454511E-3
MEAN_MOTION_DOT = .10658E-3
MEAN_MOTION_DDOT = 0

CCSDS_OMM_VERS = 2.0
CREATION_DATE  = 
ORIGINATOR     = 

OBJECT_NAME    = DUPLEX
OBJECT_ID      = 1998-067XS
CENTER_NAME    = EARTH
REF_FRAME      = TEME
TIME_SYSTEM    = UTC
MEAN_ELEMENT_THEORY = SGP/SGP4

EPOCH          = 2026-02-08T17:37:15.331008
MEAN_MOTION    = 15.54186590
ECCENTRICITY   = .00014725
INCLINATION    = 51.6293
RA_OF_ASC_NODE = 214.0577
ARG_OF_PERICENTER = 73.9350
MEAN_ANOMALY   = 286.1802

EPHEMERIS_TYPE = 0
CLASSIFICATION_TYPE = U
NORAD_CAT_ID   = 66906
ELEMENT_SET_NO = 999
REV_AT_EPOCH   = 1062
BSTAR          = .47620567E-3
MEAN_MOTION_DOT = .31235E-3
MEAN_MOTION_DDOT = 0

CCSDS_OMM_VERS = 2.0
CREATION_DATE  = 
ORIGINATOR     = 

OBJECT_NAME    = ISS OBJECT XT
OBJECT_ID      = 1998-067XT
CENTER_NAME    = EARTH
REF_FRAME      = TEME
TIME_SYSTEM    = UTC
MEAN_ELEMENT_THEORY = SGP/SGP4

EPOCH          = 2026-02-08T17:19:45.701472
MEAN_MOTION    = 15.61617476
ECCENTRICITY   = .00018433
INCLINATION    = 51.6269
RA_OF_ASC_NODE = 212.4746
ARG_OF_PERICENTER = 230.6031
MEAN_ANOMALY   = 129.4800

EPHEMERIS_TYPE = 0
CLASSIFICATION_TYPE = U
NORAD_CAT_ID   = 66907
ELEMENT_SET_NO = 999
REV_AT_EPOCH   = 1064
BSTAR          = .10574386E-2
MEAN_MOTION_DOT = .93312E-3
MEAN_MOTION_DDOT = 0

CCSDS_OMM_VERS = 2.0
CREATION_DATE  = 
ORIGINATOR     = 

OBJECT_NAME    = ISS OBJECT XU
OBJECT_ID      = 1998-067XU
CENTER_NAME    = EARTH
REF_FRAME      = TEME
TIME_SYSTEM    = UTC
MEAN_ELEMENT_THEORY = SGP/SGP4

EPOCH          = 2026-02-08T17:18:55.623168
MEAN_MOTION    = 15.61646519
ECCENTRICITY   = .00017179
INCLINATION    = 51.6265
RA_OF_ASC_NODE = 212.4680
ARG_OF_PERICENTER = 232.9156
MEAN_ANOMALY   = 127.1681

EPHEMERIS_TYPE = 0
CLASSIFICATION_TYPE = U
NORAD_CAT_ID   = 66908
ELEMENT_SET_NO = 999
REV_AT_EPOCH   = 1064
BSTAR          = .10552455E-2
MEAN_MOTION_DOT = .93221E-3
MEAN_MOTION_DDOT = 0

